STARLINK-36415          
1 67519U 26012AC  26030.16668981 -.01678727  81489-3 -38994-2 0  9993
2 67519  42.9965 177.5670 0001479 272.2242 182.1733 15.96290371  3034
STARLINK-36547          
1 67520U 26012AD  26030.16668981 -.01655054  79219-3 -38847-2 0  9998
2 67520  42.9961 177.5871 0001516 276.6981 169.6279 15.96096267  2813
STARLINK-36444          
1 67521U 26012AE  26030.16668981 -.01705577  83674-3 -40235-2 0  9999
2 67521  42.9966 177.5976 0001655 274.5233 168.0738 15.96010872  2817
HULIANWANG DIGUI-146    
1 67522U 26013A   26028.30962667  .00000088  00000+0  17167-3 0  9991
2 67522  50.0080 148.9639 0011542 265.4154  94.5428 13.95844884  1262
HULIANWANG DIGUI-147    
1 67523U 26013B   26027.66313970 -.00000123  00000+0  18037-4 0  9996
2 67523  50.0086 151.5449 0010772 261.1838  98.7844 13.97615599  1173
HULIANWANG DIGUI-148    
1 67524U 26013C   26021.44230141 -.00000137  00000+0  86600-5 0  9992
2 67524  50.0070 176.6144 0010785 240.3737 119.6091 13.98087765   308
HULIANWANG DIGUI-149    
1 67525U 26013D   26021.15633713 -.00000091  00000+0  40401-4 0  9990
2 67525  50.0063 177.7692 0010538 247.0477 112.9313 13.98123959   266
HULIANWANG DIGUI-150    
1 67526U 26013E   26025.15851686 -.00000115  00000+0  23740-4 0  9990
2 67526  50.0096 161.6201 0010015 258.6345 101.3432 13.98253437   846
HULIANWANG DIGUI-151    
1 67527U 26013F   26021.15608316 -.00000614  00000+0 -32354-3 0  9992
2 67527  50.0035 177.7600 0009841 238.6748 121.3191 13.98327198   267
HULIANWANG DIGUI-152    
1 67528U 26013G   26024.08719212 -.00000118  00000+0  21603-4 0  9990
2 67528  50.0047 165.9375 0009745 257.1222 102.8592 13.97836723   677
HULIANWANG DIGUI-153    
1 67529U 26013H   26021.44172990 -.00000104  00000+0  31747-4 0  9999
2 67529  50.0011 176.6007 0008856 242.1618 117.8387 13.98470310   298
HULIANWANG DIGUI-154    
1 67530U 26013J   26021.22721932 -.00000008  00000+0  98151-4 0  9998
2 67530  50.0045 177.4718 0008317 246.2151 113.7880 13.98568419   262
